COMMENT,ORIGINATOR,NORAD_CAT_ID,OBJECT_NAME,OBJECT_TYPE,CLASSIFICATION_TYPE,INTLDES,EPOCH,EPOCH_MICROSECONDS,MEAN_MOTION,ECCENTRICITY,INCLINATION,RA_OF_ASC_NODE,ARG_OF_PERICENTER,MEAN_ANOMALY,EPHEMERIS_TYPE,ELEMENT_SET_NO,REV_AT_EPOCH,BSTAR,MEAN_MOTION_DOT,MEAN_MOTION_DDOT,FILE,TLE_LINE0,TLE_LINE1,TLE_LINE2,OBJECT_ID,OBJECT_NUMBER,SEMIMAJOR_AXIS,PERIOD,APOGEE,PERIGEE,DECAYED
GENERATED VIA SPACETRACK.ORG API,18 SPCS,57309,STARLINK-30163,PAYLOAD,U,23096V,2024-03-04 06:14:00,579552,15.02523879,0.0001383,43.0001,258.9394,277.3441,82.7244,0,999,3605,0.00084938,0.00011285,0,4207622,0 STARLINK-30163,1 57309U 23096V   24064.25972893  .00011285  00000-0  84938-3 0  9997,2 57309  43.0001 258.9394 0001383 277.3441  82.7244 15.02523879 36050,2023-096V,57309,6937.254,95.839,560.078,558.159,1
GENERATED VIA SPACETRACK.ORG API,18 SPCS,57309,STARLINK-30163,PAYLOAD,U,23096V,2024-03-04 06:14:00,579552,15.02523879,0.0001383,43.0001,258.9394,277.3441,82.7244,0,999,3608,0.00084938,0.00011285,0,4208022,0 STARLINK-30163,1 57309U 23096V   24064.25972893  .00011285  00000-0  84938-3 0  9997,2 57309  43.0001 258.9394 0001383 277.3441  82.7244 15.02523879 36083,2023-096V,57309,6937.254,95.839,560.078,558.159,1
GENERATED VIA SPACETRACK.ORG API,18 SPCS,57309,STARLINK-30163,PAYLOAD,U,23096V,2024-03-04 18:59:49,512192,15.02545221,0.0001365,43.0013,256.0472,250.8729,109.1965,0,999,3613,0.00020021,0.00002503,0,4208272,0 STARLINK-30163,1 57309U 23096V   24064.79154528  .00002503  00000-0  20021-3 0  9999,2 57309  43.0013 256.0472 0001365 250.8729 109.1965 15.02545221 36132,2023-096V,57309,6937.188,95.837,560.000,558.106,1
GENERATED VIA SPACETRACK.ORG API,18 SPCS,57309,STARLINK-30163,PAYLOAD,U,23096V,2024-03-04 18:59:49,512192,15.02545221,0.0001365,43.0013,256.0472,250.8729,109.1965,0,999,3616,0.00020021,0.00002503,0,4208633,0 STARLINK-30163,1 57309U 23096V   24064.79154528  .00002503  00000-0  20021-3 0  9999,2 57309  43.0013 256.0472 0001365 250.8729 109.1965 15.02545221 36165,2023-096V,57309,6937.188,95.837,560.000,558.106,1
GENERATED VIA SPACETRACK.ORG API,18 SPCS,57309,STARLINK-30163,PAYLOAD,U,23096V,2024-03-05 12:32:49,111296,15.02556171,0.0001424,43.0017,252.074,271.4969,88.571,0,999,3627,0.00016752,0.00002061,0,4209183,0 STARLINK-30163,1 57309U 23096V   24065.52279064  .00002061  00000-0  16752-3 0  9999,2 57309  43.0017 252.0740 0001424 271.4969  88.5710 15.02556171 36270,2023-096V,57309,6937.154,95.837,560.007,558.032,1
GENERATED VIA SPACETRACK.ORG API,18 SPCS,57309,STARLINK-30163,PAYLOAD,U,23096V,2024-03-05 17:19:59,848608,15.02561531,0.0001643,43.0015,250.9905,281.8438,78.222,0,999,3627,0.00033843,0.00004374,0,4209728,0 STARLINK-30163,1 57309U 23096V   24065.72222047  .00004374  00000-0  33843-3 0  9999,2 57309  43.0015 250.9905 0001643 281.8438  78.2220 15.02561531 36275,2023-096V,57309,6937.138,95.836,560.143,557.863,1
GENERATED VIA SPACETRACK.ORG API,18 SPCS,57309,STARLINK-30163,PAYLOAD,U,23096V,2024-03-06 04:30:05,637600,15.02541215,0.0001797,43.0013,248.4609,270.4207,89.6429,0,999,3634,-0.00015538,-0.00002302,0,4211011,0 STARLINK-30163,1 57309U 23096V   24066.18756525 -.00002302  00000-0 -15538-3 0  9995,2 57309  43.0013 248.4609 0001797 270.4207  89.6429 15.02541215 36346,2023-096V,57309,6937.200,95.838,560.312,557.819,1
GENERATED VIA SPACETRACK.ORG API,18 SPCS,57309,STARLINK-30163,PAYLOAD,U,23096V,2024-03-06 04:30:05,637600,15.02541215,0.0001797,43.0013,248.4609,270.4207,89.6429,0,999,3637,-0.00015538,-0.00002302,0,4211361,0 STARLINK-30163,1 57309U 23096V   24066.18756525 -.00002302  00000-0 -15538-3 0  9995,2 57309  43.0013 248.4609 0001797 270.4207  89.6429 15.02541215 36379,2023-096V,57309,6937.200,95.838,560.312,557.819,1
GENERATED VIA SPACETRACK.ORG API,18 SPCS,57309,STARLINK-30163,PAYLOAD,U,23096V,2024-03-06 15:40:12,590400,15.02511641,0.0002061,43.0022,245.9316,267.6671,92.3935,0,999,3641,-0.00065507,-0.00009036,0,4211591,0 STARLINK-30163,1 57309U 23096V   24066.65292350 -.00009036  00000-0 -65507-3 0  9990,2 57309  43.0022 245.9316 0002061 267.6671  92.3935 15.02511641 36412,2023-096V,57309,6937.292,95.840,560.586,557.727,1
GENERATED VIA SPACETRACK.ORG API,18 SPCS,57309,STARLINK-30163,PAYLOAD,U,23096V,2024-03-06 23:38:51,14688,15.02525173,0.0001395,43.0005,244.1264,253.1382,106.9307,0,999,3646,-0.0002287,-0.00003291,0,4212116,0 STARLINK-30163,1 57309U 23096V   24066.98531267 -.00003291  00000-0 -22870-3 0  9992,2 57309  43.0005 244.1264 0001395 253.1382 106.9307 15.02525173 36469,2023-096V,57309,6937.250,95.839,560.083,558.147,1
GENERATED VIA SPACETRACK.ORG API,18 SPCS,57309,STARLINK-30163,PAYLOAD,U,23096V,2024-03-07 14:00:24,406848,15.02532141,0.0001383,43.0004,240.8759,272.0676,88.0007,0,999,3658,0.000070926,0.00000755,0,4212721,0 STARLINK-30163,1 57309U 23096V   24067.58361582  .00000755  00000-0  70926-4 0  9996,2 57309  43.0004 240.8759 0001383 272.0676  88.0007 15.02532141 36586,2023-096V,57309,6937.228,95.838,560.053,558.134,1
GENERATED VIA SPACETRACK.ORG API,18 SPCS,57309,STARLINK-30163,PAYLOAD,U,23096V,2024-03-07 14:00:24,406848,15.02532141,0.0001383,43.0004,240.8759,272.0676,88.0007,0,999,3655,0.000070926,0.00000755,0,4212964,0 STARLINK-30163,1 57309U 23096V   24067.58361582  .00000755  00000-0  70926-4 0  9996,2 57309  43.0004 240.8759 0001383 272.0676  88.0007 15.02532141 36553,2023-096V,57309,6937.228,95.838,560.053,558.134,1
GENERATED VIA SPACETRACK.ORG API,18 SPCS,57309,STARLINK-30163,PAYLOAD,U,23096V,2024-03-08 13:56:19,775616,15.02546441,0.0001582,43.0003,235.4571,273.6601,86.406,0,999,3673,0.00071227,0.00009434,0,4214683,0 STARLINK-30163,1 57309U 23096V   24068.58078444  .00009434  00000-0  71227-3 0  9996,2 57309  43.0003 235.4571 0001582 273.6601  86.4060 15.02546441 36739,2023-096V,57309,6937.184,95.837,560.147,557.952,1
GENERATED VIA SPACETRACK.ORG API,18 SPCS,57309,STARLINK-30163,PAYLOAD,U,23096V,2024-03-08 18:43:30,518976,15.02556191,0.0001664,43.0025,234.3745,273.0212,87.044,0,999,3673,0.00085251,0.00011337,0,4214763,0 STARLINK-30163,1 57309U 23096V   24068.78021434  .00011337  00000-0  85251-3 0  9992,2 57309  43.0025 234.3745 0001664 273.0212  87.0440 15.02556191 36739,2023-096V,57309,6937.154,95.837,560.174,557.865,1
GENERATED VIA SPACETRACK.ORG API,18 SPCS,57309,STARLINK-30163,PAYLOAD,U,23096V,2024-03-08 18:43:30,518976,15.02556191,0.0001664,43.0025,234.3745,273.0212,87.044,0,999,3676,0.00085251,0.00011337,0,4215142,0 STARLINK-30163,1 57309U 23096V   24068.78021434  .00011337  00000-0  85251-3 0  9992,2 57309  43.0025 234.3745 0001664 273.0212  87.0440 15.02556191 36762,2023-096V,57309,6937.154,95.837,560.174,557.865,1
GENERATED VIA SPACETRACK.ORG API,18 SPCS,57309,STARLINK-30163,PAYLOAD,U,23096V,2024-03-09 10:40:47,273376,15.02543785,0.0001918,43.0006,230.7612,257.0861,102.9767,0,999,3683,0.00023681,0.00002997,0,4216041,0 STARLINK-30163,1 57309U 23096V   24069.44499159  .00002997  00000-0  23681-3 0  9990,2 57309  43.0006 230.7612 0001918 257.0861 102.9767 15.02543785 36830,2023-096V,57309,6937.193,95.837,560.388,557.727,1
GENERATED VIA SPACETRACK.ORG API,18 SPCS,57309,STARLINK-30163,PAYLOAD,U,23096V,2024-03-09 13:52:14,924064,15.02537105,0.0001623,42.9993,230.037,259.381,100.6849,0,999,3688,-0.000023243,-0.00000518,0,4216444,0 STARLINK-30163,1 57309U 23096V   24069.57795051 -.00000518  00000-0 -23243-4 0  9998,2 57309  42.9993 230.0370 0001623 259.3810 100.6849 15.02537105 36889,2023-096V,57309,6937.213,95.838,560.204,557.952,1
GENERATED VIA SPACETRACK.ORG API,18 SPCS,57309,STARLINK-30163,PAYLOAD,U,23096V,2024-03-09 18:39:26,95968,15.02536588,0.0002022,43.0021,228.956,275.5734,84.4877,0,999,3688,0.000014993,-0.00000001,0,4216645,0 STARLINK-30163,1 57309U 23096V   24069.77738537 -.00000001  00000-0  14993-4 0  9994,2 57309  43.0021 228.9560 0002022 275.5734  84.4877 15.02536588 36883,2023-096V,57309,6937.215,95.838,560.482,557.677,1
GENERATED VIA SPACETRACK.ORG API,18 SPCS,57309,STARLINK-30163,PAYLOAD,U,23096V,2024-03-09 20:15:09,720000,15.02539372,0.0001959,43.0025,228.594,271.8499,88.2118,0,999,3692,0.00017483,0.00002159,0,4216947,0 STARLINK-30163,1 57309U 23096V   24069.84386250  .00002159  00000-0  17483-3 0  9994,2 57309  43.0025 228.5940 0001959 271.8499  88.2118 15.02539372 36929,2023-096V,57309,6937.206,95.838,560.430,557.712,1
GENERATED VIA SPACETRACK.ORG API,18 SPCS,57309,STARLINK-30163,PAYLOAD,U,23096V,2024-03-10 13:48:10,797408,15.02531196,0.0001697,43.0027,224.6202,266.1552,93.9096,0,999,3703,0.00023319,0.00002947,0,4218257,0 STARLINK-30163,1 57309U 23096V   24070.57512497  .00002947  00000-0  23319-3 0  9990,2 57309  43.0027 224.6202 0001697 266.1552  93.9096 15.02531196 37032,2023-096V,57309,6937.231,95.838,560.274,557.919,1
GENERATED VIA SPACETRACK.ORG API,18 SPCS,57309,STARLINK-30163,PAYLOAD,U,23096V,2024-03-10 20:11:05,233056,15.02545124,0.0001553,43.0025,223.1754,265.8358,94.2307,0,999,3704,0.00052394,0.00006883,0,4218479,0 STARLINK-30163,1 57309U 23096V   24070.84103279  .00006883  00000-0  52394-3 0  9992,2 57309  43.0025 223.1754 0001553 265.8358  94.2307 15.02545124 37043,2023-096V,57309,6937.188,95.837,560.131,557.976,1
GENERATED VIA SPACETRACK.ORG API,18 SPCS,57309,STARLINK-30163,PAYLOAD,U,23096V,2024-03-11 02:34:00,475680,15.02535373,0.0001236,43.0019,221.7286,278.976,81.0943,0,999,3708,0.00039312,0.00005111,0,4219066,0 STARLINK-30163,1 57309U 23096V   24071.10694995  .00005111  00000-0  39312-3 0  9990,2 57309  43.0019 221.7286 0001236 278.9760  81.0943 15.02535373 37089,2023-096V,57309,6937.218,95.838,559.941,558.226,1
GENERATED VIA SPACETRACK.ORG API,18 SPCS,57309,STARLINK-30163,PAYLOAD,U,23096V,2024-03-11 12:08:22,398720,15.02541125,0.000137,43.0012,219.5625,269.9528,90.1157,0,999,3717,0.0003993,0.00005195,0,4220034,0 STARLINK-30163,1 57309U 23096V   24071.50581480  .00005195  00000-0  39930-3 0  9996,2 57309  43.0012 219.5625 0001370 269.9528  90.1157 15.02541125 37175,2023-096V,57309,6937.201,95.838,560.016,558.115,1
